LFMP 301500Z AUTO 30020G30KT CAVOK 12/04 Q1015 TEMPO 31030G45KT